ATLAS CENTAUR 2         
1 00694U 63047A   26002.86467941  .00003245  00000+0  38349-3 0  9997
2 00694  30.3545 203.4486 0548682 220.2895 135.5787 14.11859094122316
THOR AGENA D R/B        
1 00733U 64002A   26002.51566904  .00000528  00000+0  20540-3 0  9999
2 00733  99.1217  12.2578 0033860  91.1260 269.3803 14.33974756228819
SL-3 R/B                
1 00877U 64053B   26002.78818700  .00000637  00000+0  14799-3 0  9997
2 00877  65.0763 164.4336 0075698 313.3631  46.1178 14.61295654257164
SL-8 R/B                
1 02802U 67045B   26002.76224296  .00000801  00000+0  22896-3 0  9990
2 02802  74.0118 111.2087 0063231 135.2236 225.4051 14.45563115 79495
SL-8 R/B                
1 03230U 68040B   26002.74605736  .00005924  00000+0  44315-3 0  9993
2 03230  74.0326  88.3830 0026275 286.9283  72.9025 15.02707662 80102
OAO 2                   
1 03597U 68110A   26002.41598348  .00000559  00000+0  15606-3 0  9991
2 03597  34.9935 275.2338 0005188  19.6006 340.4884 14.47259928  9497
ISIS 1                  
1 03669U 69009A   26002.33010417  .00000609  00000+0  43583-3 0  9997
2 03669  88.4505 162.5447 1707352 223.0920 122.3360 11.30368542341039
SERT 2                  
1 04327U 70009A   26002.86821560  .00000082  00000+0  16929-3 0  9997
2 04327  99.2677 309.5923 0004707 342.8563  83.2292 13.58721509770953
SL-3 R/B                
1 05118U 71028B   26002.84521261  .00049118  00000+0  69843-3 0  9997
2 05118  81.2386 133.0271 0018593 164.9972 195.1834 15.55962467978416
ASTEX 1                 
1 05560U 71089A   26002.81250436  .00001234  00000+0  31439-3 0  9992
2 05560  92.7154 130.4391 0013907 312.6262  47.3771 14.50674960852757
SL-8 R/B                
1 05730U 71119B   26002.79527337  .00013796  00000+0  71469-3 0  9992
2 05730  73.8902 298.7373 0557467 278.7682  75.0754 14.36275364646026
OAO 3 (COPERNICUS)      
1 06153U 72065A   26002.20651297  .00000815  00000+0  17192-3 0  9993
2 06153  35.0070 316.0776 0006854 331.1485 154.5747 14.59929495836478
